{
  "type": "FeatureCollection",
  "features": [
    {
      "type": "Feature",
      "properties": {
        "name": "推定浸水範囲",
        "注意": "この情報は、国土地理院が7月11日に撮影した画<br/>像を用いて浸水範囲を判読したものです。画像<br/>の撮影範囲内の判読であること、現地踏査は実<br/>施していないことから、実際の浸水範囲との相<br/>違がある場合が有ります。",
        "_color": "#ff0000",
        "_opacity": 1,
        "_weight": 1.5,
        "_fillColor": "#ff0000",
        "_fillOpacity": 0.5
      },
      "geometry": {
        "type": "Polygon",
        "coordinates": [
          [
            [
              133.705861,
              34.637975
            ],
            [
              133.705727,
              34.638006
            ],
            [
              133.70563,
              34.638028
            ],
            [
              133.705518,
              34.638014
            ],
            [
              133.70533,
              34.637997
            ],
            [
              133.705088,
              34.637926
            ],
            [
              133.704633,
              34.637763
            ],
            [
              133.704734,
              34.637683
            ],
            [
              133.704815,
              34.637604
            ],
            [
              133.705046,
              34.637697
            ],
            [
              133.705308,
              34.637811
            ],
            [
              133.705475,
              34.637842
            ],
            [
              133.705571,
              34.637842
            ],
            [
              133.705727,
              34.637781
            ],
            [
              133.705915,
              34.637701
            ],
            [
              133.706017,
              34.637586
            ],
            [
              133.70614,
              34.637547
            ],
            [
              133.706263,
              34.637555
            ],
            [
              133.706354,
              34.637529
            ],
            [
              133.706451,
              34.637503
            ],
            [
              133.706505,
              34.637516
            ],
            [
              133.706349,
              34.637754
            ],
            [
              133.706242,
              34.63775
            ],
            [
              133.706135,
              34.637723
            ],
            [
              133.70607,
              34.63782
            ],
            [
              133.705952,
              34.6379
            ],
            [
              133.705861,
              34.637975
            ]
          ]
        ]
      }
    },
    {
      "type": "Feature",
      "properties": {
        "name": "推定浸水範囲",
        "注意": "この情報は、国土地理院が7月11日に撮影した画<br/>像を用いて浸水範囲を判読したものです。画像<br/>の撮影範囲内の判読であること、現地踏査は実<br/>施していないことから、実際の浸水範囲との相<br/>違がある場合が有ります。",
        "_color": "#ff0000",
        "_opacity": 1,
        "_weight": 1.5,
        "_fillColor": "#ff0000",
        "_fillOpacity": 0.5
      },
      "geometry": {
        "type": "Polygon",
        "coordinates": [
          [
            [
              133.649459,
              34.621409
            ],
            [
              133.648767,
              34.621307
            ],
            [
              133.648864,
              34.6208
            ],
            [
              133.649481,
              34.620883
            ],
            [
              133.649439,
              34.621035
            ],
            [
              133.649522,
              34.62108
            ],
            [
              133.64948,
              34.621243
            ],
            [
              133.649459,
              34.621409
            ]
          ]
        ]
      }
    },
    {
      "type": "Feature",
      "properties": {
        "name": "推定浸水範囲",
        "注意": "この情報は、国土地理院が7月11日に撮影した画<br/>像を用いて浸水範囲を判読したものです。画像<br/>の撮影範囲内の判読であること、現地踏査は実<br/>施していないことから、実際の浸水範囲との相<br/>違がある場合が有ります。",
        "_color": "#ff0000",
        "_opacity": 1,
        "_weight": 1.5,
        "_fillColor": "#ff0000",
        "_fillOpacity": 0.5
      },
      "geometry": {
        "type": "Polygon",
        "coordinates": [
          [
            [
              133.67648,
              34.617166
            ],
            [
              133.676974,
              34.617299
            ],
            [
              133.677392,
              34.616442
            ],
            [
              133.677531,
              34.616204
            ],
            [
              133.676373,
              34.616098
            ],
            [
              133.675997,
              34.616804
            ],
            [
              133.676137,
              34.616875
            ],
            [
              133.676083,
              34.617069
            ],
            [
              133.67648,
              34.617166
            ]
          ]
        ]
      }
    },
    {
      "type": "Feature",
      "properties": {
        "name": "推定浸水範囲",
        "注意": "この情報は、国土地理院が7月11日に撮影した画<br/>像を用いて浸水範囲を判読したものです。画像<br/>の撮影範囲内の判読であること、現地踏査は実<br/>施していないことから、実際の浸水範囲との相<br/>違がある場合が有ります。",
        "_color": "#ff0000",
        "_opacity": 1,
        "_weight": 1.5,
        "_fillColor": "#ff0000",
        "_fillOpacity": 0.5
      },
      "geometry": {
        "type": "Polygon",
        "coordinates": [
          [
            [
              133.675354,
              34.618005
            ],
            [
              133.675214,
              34.618482
            ],
            [
              133.675053,
              34.618477
            ],
            [
              133.675203,
              34.617957
            ],
            [
              133.675354,
              34.618005
            ]
          ]
        ]
      }
    }
  ]
}