{
  "type": "FeatureCollection",
  "features": [
    {
      "type": "Feature",
      "properties": {
        "name": "推定浸水範囲",
        "注意": "この情報は、国土交通省災害対策用ヘリコプタ<br/>ーが7月8日に撮影した画像を用いて浸水範囲を<br/>判読したものです。画像の撮影範囲内の判<br/>読であること、現地踏査は実施していないこと<br/>から、実際の浸水範囲との相違がある場合が有<br/>ります。",
        "_color": "#00fa9a",
        "_opacity": 1,
        "_weight": 1.5,
        "_fillColor": "#00fa9a",
        "_fillOpacity": 0.2
      },
      "geometry": {
        "type": "Polygon",
        "coordinates": [
          [
            [
              132.575621,
              33.499409
            ],
            [
              132.57495,
              33.499436
            ],
            [
              132.575074,
              33.498734
            ],
            [
              132.575144,
              33.498559
            ],
            [
              132.575245,
              33.498394
            ],
            [
              132.575476,
              33.498416
            ],
            [
              132.575551,
              33.498613
            ],
            [
              132.575739,
              33.498886
            ],
            [
              132.575718,
              33.499038
            ],
            [
              132.575621,
              33.499409
            ]
          ]
        ]
      }
    },
    {
      "type": "Feature",
      "properties": {
        "name": "推定浸水範囲",
        "注意": "この情報は、国土交通省災害対策用ヘリコプタ<br/>ーが7月8日に撮影した画像を用いて浸水範囲を<br/>判読したものです。画像の撮影範囲内の判<br/>読であること、現地踏査は実施していないこと<br/>から、実際の浸水範囲との相違がある場合が有<br/>ります。",
        "_color": "#00fa9a",
        "_opacity": 1,
        "_weight": 1.5,
        "_fillColor": "#00fa9a",
        "_fillOpacity": 0.2
      },
      "geometry": {
        "type": "Polygon",
        "coordinates": [
          [
            [
              132.583501,
              33.488932
            ],
            [
              132.583448,
              33.489339
            ],
            [
              132.58407,
              33.489616
            ],
            [
              132.584145,
              33.489133
            ],
            [
              132.583689,
              33.488959
            ],
            [
              132.583501,
              33.488932
            ]
          ]
        ]
      }
    },
    {
      "type": "Feature",
      "properties": {
        "name": "推定浸水範囲",
        "注意": "この情報は、国土交通省災害対策用ヘリコプタ<br/>ーが7月8日に撮影した画像を用いて浸水範囲を<br/>判読したものです。画像の撮影範囲内の判<br/>読であること、現地踏査は実施していないこと<br/>から、実際の浸水範囲との相違がある場合が有<br/>ります。",
        "_color": "#00fa9a",
        "_opacity": 1,
        "_weight": 1.5,
        "_fillColor": "#00fa9a",
        "_fillOpacity": 0.2
      },
      "geometry": {
        "type": "Polygon",
        "coordinates": [
          [
            [
              132.582117,
              33.489496
            ],
            [
              132.58252,
              33.489692
            ],
            [
              132.582643,
              33.489536
            ],
            [
              132.582294,
              33.489348
            ],
            [
              132.582117,
              33.489496
            ]
          ]
        ]
      }
    },
    {
      "type": "Feature",
      "properties": {
        "name": "推定浸水範囲",
        "注意": "この情報は、国土交通省災害対策用ヘリコプタ<br/>ーが7月8日に撮影した画像を用いて浸水範囲を<br/>判読したものです。画像の撮影範囲内の判<br/>読であること、現地踏査は実施していないこと<br/>から、実際の浸水範囲との相違がある場合が有<br/>ります。",
        "_color": "#00fa9a",
        "_opacity": 1,
        "_weight": 1.5,
        "_fillColor": "#00fa9a",
        "_fillOpacity": 0.2
      },
      "geometry": {
        "type": "Polygon",
        "coordinates": [
          [
            [
              132.583426,
              33.489429
            ],
            [
              132.583405,
              33.489639
            ],
            [
              132.583544,
              33.489706
            ],
            [
              132.583512,
              33.48984
            ],
            [
              132.58378,
              33.490055
            ],
            [
              132.583904,
              33.490091
            ],
            [
              132.583952,
              33.490006
            ],
            [
              132.584193,
              33.490032
            ],
            [
              132.584215,
              33.489831
            ],
            [
              132.583426,
              33.489429
            ]
          ]
        ]
      }
    },
    {
      "type": "Feature",
      "properties": {
        "name": "推定浸水範囲",
        "注意": "この情報は、国土交通省災害対策用ヘリコプタ<br/>ーが7月8日に撮影した画像を用いて浸水範囲を<br/>判読したものです。画像の撮影範囲内の判<br/>読であること、現地踏査は実施していないこと<br/>から、実際の浸水範囲との相違がある場合が有<br/>ります。",
        "_color": "#00fa9a",
        "_opacity": 1,
        "_weight": 1.5,
        "_fillColor": "#00fa9a",
        "_fillOpacity": 0.2
      },
      "geometry": {
        "type": "Polygon",
        "coordinates": [
          [
            [
              132.61189,
              33.500425
            ],
            [
              132.614159,
              33.501082
            ],
            [
              132.616986,
              33.502048
            ],
            [
              132.617211,
              33.501682
            ],
            [
              132.617501,
              33.501096
            ],
            [
              132.617678,
              33.500756
            ],
            [
              132.617855,
              33.50042
            ],
            [
              132.616074,
              33.499669
            ],
            [
              132.61513,
              33.499543
            ],
            [
              132.614164,
              33.49949
            ],
            [
              132.613338,
              33.499561
            ],
            [
              132.612716,
              33.499615
            ],
            [
              132.612673,
              33.499812
            ],
            [
              132.61248,
              33.499848
            ],
            [
              132.612437,
              33.49957
            ],
            [
              132.611933,
              33.499678
            ],
            [
              132.611772,
              33.499839
            ],
            [
              132.61189,
              33.500425
            ]
          ]
        ]
      }
    },
    {
      "type": "Feature",
      "properties": {
        "name": "推定浸水範囲",
        "注意": "この情報は、国土交通省災害対策用ヘリコプタ<br/>ーが7月8日に撮影した画像を用いて浸水範囲を<br/>判読したものです。画像の撮影範囲内の判<br/>読であること、現地踏査は実施していないこと<br/>から、実際の浸水範囲との相違がある場合が有<br/>ります。",
        "_color": "#00fa9a",
        "_opacity": 1,
        "_weight": 1.5,
        "_fillColor": "#00fa9a",
        "_fillOpacity": 0.2
      },
      "geometry": {
        "type": "Polygon",
        "coordinates": [
          [
            [
              132.576002,
              33.499919
            ],
            [
              132.576667,
              33.499946
            ],
            [
              132.57671,
              33.500402
            ],
            [
              132.576849,
              33.500653
            ],
            [
              132.576721,
              33.500688
            ],
            [
              132.576796,
              33.500796
            ],
            [
              132.576946,
              33.500742
            ],
            [
              132.577085,
              33.500832
            ],
            [
              132.577075,
              33.5011
            ],
            [
              132.576946,
              33.501207
            ],
            [
              132.576882,
              33.501163
            ],
            [
              132.576613,
              33.501261
            ],
            [
              132.576678,
              33.501547
            ],
            [
              132.576206,
              33.502227
            ],
            [
              132.575884,
              33.501959
            ],
            [
              132.576324,
              33.501324
            ],
            [
              132.576367,
              33.501091
            ],
            [
              132.576442,
              33.500921
            ],
            [
              132.576045,
              33.500608
            ],
            [
              132.576002,
              33.499919
            ]
          ]
        ]
      }
    },
    {
      "type": "Feature",
      "properties": {
        "name": "推定浸水範囲",
        "注意": "この情報は、国土交通省災害対策用ヘリコプタ<br/>ーが7月8日に撮影した画像を用いて浸水範囲を<br/>判読したものです。画像の撮影範囲内の判<br/>読であること、現地踏査は実施していないこと<br/>から、実際の浸水範囲との相違がある場合が有<br/>ります。",
        "_color": "#00fa9a",
        "_opacity": 1,
        "_weight": 1.5,
        "_fillColor": "#00fa9a",
        "_fillOpacity": 0.2
      },
      "geometry": {
        "type": "Polygon",
        "coordinates": [
          [
            [
              132.520625,
              33.505743
            ],
            [
              132.520384,
              33.506146
            ],
            [
              132.520169,
              33.506369
            ],
            [
              132.520013,
              33.506436
            ],
            [
              132.520089,
              33.506499
            ],
            [
              132.520469,
              33.506472
            ],
            [
              132.520453,
              33.50636
            ],
            [
              132.520748,
              33.506298
            ],
            [
              132.521129,
              33.506222
            ],
            [
              132.521172,
              33.506195
            ],
            [
              132.521338,
              33.506177
            ],
            [
              132.521092,
              33.506074
            ],
            [
              132.520899,
              33.505949
            ],
            [
              132.520625,
              33.505743
            ]
          ]
        ]
      }
    },
    {
      "type": "Feature",
      "properties": {
        "name": "推定浸水範囲",
        "注意": "この情報は、国土交通省災害対策用ヘリコプタ<br/>ーが7月8日に撮影した画像を用いて浸水範囲を<br/>判読したものです。画像の撮影範囲内の判<br/>読であること、現地踏査は実施していないこと<br/>から、実際の浸水範囲との相違がある場合が有<br/>ります。",
        "_color": "#00fa9a",
        "_opacity": 1,
        "_weight": 1.5,
        "_fillColor": "#00fa9a",
        "_fillOpacity": 0.2
      },
      "geometry": {
        "type": "Polygon",
        "coordinates": [
          [
            [
              132.522422,
              33.507309
            ],
            [
              132.522315,
              33.507416
            ],
            [
              132.52225,
              33.507488
            ],
            [
              132.52225,
              33.507514
            ],
            [
              132.522513,
              33.507608
            ],
            [
              132.522642,
              33.507729
            ],
            [
              132.522798,
              33.507747
            ],
            [
              132.522867,
              33.507707
            ],
            [
              132.52283,
              33.507537
            ],
            [
              132.522733,
              33.507412
            ],
            [
              132.522422,
              33.507309
            ]
          ]
        ]
      }
    },
    {
      "type": "Feature",
      "properties": {
        "name": "推定浸水範囲",
        "注意": "この情報は、国土交通省災害対策用ヘリコプタ<br/>ーが7月8日に撮影した画像を用いて浸水範囲を<br/>判読したものです。画像の撮影範囲内の判<br/>読であること、現地踏査は実施していないこと<br/>から、実際の浸水範囲との相違がある場合が有<br/>ります。",
        "_color": "#00fa9a",
        "_opacity": 1,
        "_weight": 1.5,
        "_fillColor": "#00fa9a",
        "_fillOpacity": 0.2
      },
      "geometry": {
        "type": "Polygon",
        "coordinates": [
          [
            [
              132.604187,
              33.506155
            ],
            [
              132.605839,
              33.50535
            ],
            [
              132.605581,
              33.504956
            ],
            [
              132.604916,
              33.50501
            ],
            [
              132.602792,
              33.504616
            ],
            [
              132.600775,
              33.504491
            ],
            [
              132.598028,
              33.50331
            ],
            [
              132.596097,
              33.502415
            ],
            [
              132.594724,
              33.501986
            ],
            [
              132.593029,
              33.501699
            ],
            [
              132.592299,
              33.500948
            ],
            [
              132.591999,
              33.500161
            ],
            [
              132.591891,
              33.499373
            ],
            [
              132.591634,
              33.498711
            ],
            [
              132.59121,
              33.498264
            ],
            [
              132.590867,
              33.498295
            ],
            [
              132.590856,
              33.498787
            ],
            [
              132.59128,
              33.498774
            ],
            [
              132.591333,
              33.500214
            ],
            [
              132.591376,
              33.500841
            ],
            [
              132.591789,
              33.502066
            ],
            [
              132.591392,
              33.502183
            ],
            [
              132.591698,
              33.50293
            ],
            [
              132.592213,
              33.50314
            ],
            [
              132.592143,
              33.503319
            ],
            [
              132.592814,
              33.503542
            ],
            [
              132.593586,
              33.50467
            ],
            [
              132.593865,
              33.504938
            ],
            [
              132.593951,
              33.505027
            ],
            [
              132.593565,
              33.505528
            ],
            [
              132.595668,
              33.506405
            ],
            [
              132.59805,
              33.506996
            ],
            [
              132.598972,
              33.507215
            ],
            [
              132.599611,
              33.507206
            ],
            [
              132.600834,
              33.506638
            ],
            [
              132.601172,
              33.506584
            ],
            [
              132.601628,
              33.506705
            ],
            [
              132.604187,
              33.506155
            ]
          ]
        ]
      }
    },
    {
      "type": "Feature",
      "properties": {
        "name": "推定浸水範囲",
        "注意": "この情報は、国土交通省災害対策用ヘリコプタ<br/>ーが7月8日に撮影した画像を用いて浸水範囲を<br/>判読したものです。画像の撮影範囲内の判<br/>読であること、現地踏査は実施していないこと<br/>から、実際の浸水範囲との相違がある場合が有<br/>ります。",
        "_color": "#00fa9a",
        "_opacity": 1,
        "_weight": 1.5,
        "_fillColor": "#00fa9a",
        "_fillOpacity": 0.2
      },
      "geometry": {
        "type": "Polygon",
        "coordinates": [
          [
            [
              132.584687,
              33.506884
            ],
            [
              132.58399,
              33.506982
            ],
            [
              132.58392,
              33.506799
            ],
            [
              132.58363,
              33.506893
            ],
            [
              132.583324,
              33.50692
            ],
            [
              132.583019,
              33.506946
            ],
            [
              132.582793,
              33.506888
            ],
            [
              132.582536,
              33.506933
            ],
            [
              132.582428,
              33.506982
            ],
            [
              132.582428,
              33.507161
            ],
            [
              132.582251,
              33.507237
            ],
            [
              132.582353,
              33.507586
            ],
            [
              132.582552,
              33.507684
            ],
            [
              132.582686,
              33.507774
            ],
            [
              132.582895,
              33.508011
            ],
            [
              132.583061,
              33.508078
            ],
            [
              132.583233,
              33.508114
            ],
            [
              132.583582,
              33.508096
            ],
            [
              132.584086,
              33.507917
            ],
            [
              132.584344,
              33.507743
            ],
            [
              132.584816,
              33.50764
            ],
            [
              132.585186,
              33.507559
            ],
            [
              132.585331,
              33.507604
            ],
            [
              132.585534,
              33.507769
            ],
            [
              132.585899,
              33.50815
            ],
            [
              132.586033,
              33.508159
            ],
            [
              132.586167,
              33.508167
            ],
            [
              132.586221,
              33.508261
            ],
            [
              132.586398,
              33.508418
            ],
            [
              132.586967,
              33.508937
            ],
            [
              132.587332,
              33.509098
            ],
            [
              132.58745,
              33.509129
            ],
            [
              132.587729,
              33.509062
            ],
            [
              132.5879,
              33.509026
            ],
            [
              132.588989,
              33.509134
            ],
            [
              132.59113,
              33.509232
            ],
            [
              132.591194,
              33.509017
            ],
            [
              132.591231,
              33.508709
            ],
            [
              132.59128,
              33.507908
            ],
            [
              132.591333,
              33.507277
            ],
            [
              132.590829,
              33.507251
            ],
            [
              132.590261,
              33.507309
            ],
            [
              132.590244,
              33.507461
            ],
            [
              132.589134,
              33.507389
            ],
            [
              132.589166,
              33.506477
            ],
            [
              132.589349,
              33.504625
            ],
            [
              132.588699,
              33.504585
            ],
            [
              132.588651,
              33.504075
            ],
            [
              132.588539,
              33.502956
            ],
            [
              132.588013,
              33.502988
            ],
            [
              132.5879,
              33.501896
            ],
            [
              132.587793,
              33.501869
            ],
            [
              132.5876,
              33.502621
            ],
            [
              132.5876,
              33.503641
            ],
            [
              132.587643,
              33.504866
            ],
            [
              132.587578,
              33.505403
            ],
            [
              132.587482,
              33.506047
            ],
            [
              132.587353,
              33.50611
            ],
            [
              132.586162,
              33.506208
            ],
            [
              132.586087,
              33.506602
            ],
            [
              132.586355,
              33.506602
            ],
            [
              132.58628,
              33.50721
            ],
            [
              132.585733,
              33.507201
            ],
            [
              132.585615,
              33.506888
            ],
            [
              132.585379,
              33.506387
            ],
            [
              132.584907,
              33.506343
            ],
            [
              132.584596,
              33.506468
            ],
            [
              132.584687,
              33.506884
            ]
          ]
        ]
      }
    },
    {
      "type": "Feature",
      "properties": {
        "name": "推定浸水範囲",
        "注意": "この情報は、国土交通省災害対策用ヘリコプタ<br/>ーが7月8日に撮影した画像を用いて浸水範囲を<br/>判読したものです。画像の撮影範囲内の判<br/>読であること、現地踏査は実施していないこと<br/>から、実際の浸水範囲との相違がある場合が有<br/>ります。",
        "_color": "#00fa9a",
        "_opacity": 1,
        "_weight": 1.5,
        "_fillColor": "#00fa9a",
        "_fillOpacity": 0.2
      },
      "geometry": {
        "type": "Polygon",
        "coordinates": [
          [
            [
              132.605667,
              33.508677
            ],
            [
              132.60622,
              33.508606
            ],
            [
              132.606461,
              33.508838
            ],
            [
              132.606724,
              33.508879
            ],
            [
              132.607234,
              33.508821
            ],
            [
              132.607818,
              33.508664
            ],
            [
              132.608167,
              33.508548
            ],
            [
              132.608441,
              33.508396
            ],
            [
              132.608371,
              33.508288
            ],
            [
              132.608526,
              33.508029
            ],
            [
              132.608387,
              33.50793
            ],
            [
              132.608666,
              33.507823
            ],
            [
              132.608424,
              33.507505
            ],
            [
              132.608816,
              33.507416
            ],
            [
              132.608703,
              33.507215
            ],
            [
              132.608231,
              33.507318
            ],
            [
              132.607985,
              33.507058
            ],
            [
              132.608521,
              33.506544
            ],
            [
              132.607727,
              33.505962
            ],
            [
              132.607207,
              33.506566
            ],
            [
              132.606123,
              33.507698
            ],
            [
              132.605549,
              33.508252
            ],
            [
              132.605093,
              33.508588
            ],
            [
              132.604938,
              33.508682
            ],
            [
              132.604954,
              33.508785
            ],
            [
              132.605066,
              33.508838
            ],
            [
              132.60527,
              33.508785
            ],
            [
              132.605667,
              33.508677
            ]
          ]
        ]
      }
    },
    {
      "type": "Feature",
      "properties": {
        "name": "推定浸水範囲",
        "注意": "この情報は、国土交通省災害対策用ヘリコプタ<br/>ーが7月8日に撮影した画像を用いて浸水範囲を<br/>判読したものです。画像の撮影範囲内の判<br/>読であること、現地踏査は実施していないこと<br/>から、実際の浸水範囲との相違がある場合が有<br/>ります。",
        "_color": "#00fa9a",
        "_opacity": 1,
        "_weight": 1.5,
        "_fillColor": "#00fa9a",
        "_fillOpacity": 0.2
      },
      "geometry": {
        "type": "Polygon",
        "coordinates": [
          [
            [
              132.592567,
              33.506606
            ],
            [
              132.592417,
              33.506602
            ],
            [
              132.591886,
              33.507
            ],
            [
              132.591575,
              33.507295
            ],
            [
              132.591457,
              33.507479
            ],
            [
              132.591419,
              33.507635
            ],
            [
              132.591425,
              33.507836
            ],
            [
              132.592449,
              33.507877
            ],
            [
              132.592551,
              33.506861
            ],
            [
              132.592573,
              33.506714
            ],
            [
              132.592567,
              33.506606
            ]
          ]
        ]
      }
    },
    {
      "type": "Feature",
      "properties": {
        "name": "推定浸水範囲",
        "注意": "この情報は、国土交通省災害対策用ヘリコプタ<br/>ーが7月8日に撮影した画像を用いて浸水範囲を<br/>判読したものです。画像の撮影範囲内の判<br/>読であること、現地踏査は実施していないこと<br/>から、実際の浸水範囲との相違がある場合が有<br/>ります。",
        "_color": "#00fa9a",
        "_opacity": 1,
        "_weight": 1.5,
        "_fillColor": "#00fa9a",
        "_fillOpacity": 0.2
      },
      "geometry": {
        "type": "Polygon",
        "coordinates": [
          [
            [
              132.538022,
              33.513186
            ],
            [
              132.537668,
              33.513155
            ],
            [
              132.537593,
              33.513119
            ],
            [
              132.537501,
              33.513096
            ],
            [
              132.537577,
              33.512783
            ],
            [
              132.537877,
              33.512958
            ],
            [
              132.538033,
              33.51307
            ],
            [
              132.538022,
              33.513186
            ]
          ]
        ]
      }
    },
    {
      "type": "Feature",
      "properties": {
        "name": "推定浸水範囲",
        "注意": "この情報は、国土交通省災害対策用ヘリコプタ<br/>ーが7月8日に撮影した画像を用いて浸水範囲を<br/>判読したものです。画像の撮影範囲内の判<br/>読であること、現地踏査は実施していないこと<br/>から、実際の浸水範囲との相違がある場合が有<br/>ります。",
        "_color": "#00fa9a",
        "_opacity": 1,
        "_weight": 1.5,
        "_fillColor": "#00fa9a",
        "_fillOpacity": 0.2
      },
      "geometry": {
        "type": "Polygon",
        "coordinates": [
          [
            [
              132.53785,
              33.513611
            ],
            [
              132.537743,
              33.513535
            ],
            [
              132.537673,
              33.513477
            ],
            [
              132.537695,
              33.513365
            ],
            [
              132.537657,
              33.513271
            ],
            [
              132.537598,
              33.513235
            ],
            [
              132.537432,
              33.513588
            ],
            [
              132.537566,
              33.513624
            ],
            [
              132.537721,
              33.513682
            ],
            [
              132.537813,
              33.513682
            ],
            [
              132.53785,
              33.513611
            ]
          ]
        ]
      }
    },
    {
      "type": "Feature",
      "properties": {
        "name": "推定浸水範囲",
        "注意": "この情報は、国土交通省災害対策用ヘリコプタ<br/>ーが7月8日に撮影した画像を用いて浸水範囲を<br/>判読したものです。画像の撮影範囲内の判<br/>読であること、現地踏査は実施していないこと<br/>から、実際の浸水範囲との相違がある場合が有<br/>ります。",
        "_color": "#00fa9a",
        "_opacity": 1,
        "_weight": 1.5,
        "_fillColor": "#00fa9a",
        "_fillOpacity": 0.2
      },
      "geometry": {
        "type": "Polygon",
        "coordinates": [
          [
            [
              132.583308,
              33.529143
            ],
            [
              132.582901,
              33.529876
            ],
            [
              132.583694,
              33.529912
            ],
            [
              132.583866,
              33.52934
            ],
            [
              132.583308,
              33.529143
            ]
          ]
        ]
      }
    },
    {
      "type": "Feature",
      "properties": {
        "name": "推定浸水範囲",
        "注意": "この情報は、国土交通省災害対策用ヘリコプタ<br/>ーが7月8日に撮影した画像を用いて浸水範囲を<br/>判読したものです。画像の撮影範囲内の判<br/>読であること、現地踏査は実施していないこと<br/>から、実際の浸水範囲との相違がある場合が有<br/>ります。",
        "_color": "#00fa9a",
        "_opacity": 1,
        "_weight": 1.5,
        "_fillColor": "#00fa9a",
        "_fillOpacity": 0.2
      },
      "geometry": {
        "type": "Polygon",
        "coordinates": [
          [
            [
              132.586055,
              33.534723
            ],
            [
              132.586098,
              33.534366
            ],
            [
              132.59114,
              33.534938
            ],
            [
              132.59069,
              33.535045
            ],
            [
              132.58657,
              33.534777
            ],
            [
              132.586055,
              33.534723
            ]
          ]
        ]
      }
    },
    {
      "type": "Feature",
      "properties": {
        "name": "推定浸水範囲",
        "注意": "この情報は、国土交通省災害対策用ヘリコプタ<br/>ーが7月8日に撮影した画像を用いて浸水範囲を<br/>判読したものです。画像の撮影範囲内の判<br/>読であること、現地踏査は実施していないこと<br/>から、実際の浸水範囲との相違がある場合が有<br/>ります。",
        "_color": "#00fa9a",
        "_opacity": 1,
        "_weight": 1.5,
        "_fillColor": "#00fa9a",
        "_fillOpacity": 0.2
      },
      "geometry": {
        "type": "Polygon",
        "coordinates": [
          [
            [
              132.578201,
              33.530341
            ],
            [
              132.578051,
              33.531218
            ],
            [
              132.577633,
              33.532962
            ],
            [
              132.57965,
              33.533266
            ],
            [
              132.579918,
              33.531969
            ],
            [
              132.580304,
              33.532023
            ],
            [
              132.580433,
              33.531558
            ],
            [
              132.580808,
              33.531602
            ],
            [
              132.580905,
              33.531057
            ],
            [
              132.582021,
              33.531236
            ],
            [
              132.582214,
              33.530627
            ],
            [
              132.583416,
              33.530717
            ],
            [
              132.58348,
              33.530431
            ],
            [
              132.582407,
              33.53027
            ],
            [
              132.5826,
              33.530091
            ],
            [
              132.58245,
              33.530001
            ],
            [
              132.581656,
              33.530395
            ],
            [
              132.578287,
              33.530091
            ],
            [
              132.578287,
              33.530198
            ],
            [
              132.578201,
              33.530341
            ]
          ]
        ]
      }
    },
    {
      "type": "Feature",
      "properties": {
        "name": "推定浸水範囲",
        "注意": "この情報は、国土交通省災害対策用ヘリコプタ<br/>ーが7月8日に撮影した画像を用いて浸水範囲を<br/>判読したものです。画像の撮影範囲内の判<br/>読であること、現地踏査は実施していないこと<br/>から、実際の浸水範囲との相違がある場合が有<br/>ります。",
        "_color": "#00fa9a",
        "_opacity": 1,
        "_weight": 1.5,
        "_fillColor": "#00fa9a",
        "_fillOpacity": 0.2
      },
      "geometry": {
        "type": "Polygon",
        "coordinates": [
          [
            [
              132.592621,
              33.533632
            ],
            [
              132.590454,
              33.532309
            ],
            [
              132.589746,
              33.53179
            ],
            [
              132.584381,
              33.530967
            ],
            [
              132.584124,
              33.531987
            ],
            [
              132.583898,
              33.531897
            ],
            [
              132.583716,
              33.532765
            ],
            [
              132.582439,
              33.532622
            ],
            [
              132.581967,
              33.533105
            ],
            [
              132.583652,
              33.53331
            ],
            [
              132.583737,
              33.532935
            ],
            [
              132.584252,
              33.533024
            ],
            [
              132.584231,
              33.532881
            ],
            [
              132.584703,
              33.532953
            ],
            [
              132.58466,
              33.533114
            ],
            [
              132.585669,
              33.533239
            ],
            [
              132.585776,
              33.532774
            ],
            [
              132.586119,
              33.53281
            ],
            [
              132.585969,
              33.533239
            ],
            [
              132.591033,
              33.533954
            ],
            [
              132.590947,
              33.534205
            ],
            [
              132.591419,
              33.53424
            ],
            [
              132.591505,
              33.533972
            ],
            [
              132.592492,
              33.534151
            ],
            [
              132.592621,
              33.533632
            ]
          ]
        ]
      }
    },
    {
      "type": "Feature",
      "properties": {
        "name": "推定浸水範囲",
        "注意": "この情報は、国土交通省災害対策用ヘリコプタ<br/>ーが7月8日に撮影した画像を用いて浸水範囲を<br/>判読したものです。画像の撮影範囲内の判<br/>読であること、現地踏査は実施していないこと<br/>から、実際の浸水範囲との相違がある場合が有<br/>ります。",
        "_color": "#00fa9a",
        "_opacity": 1,
        "_weight": 1.5,
        "_fillColor": "#00fa9a",
        "_fillOpacity": 0.2
      },
      "geometry": {
        "type": "Polygon",
        "coordinates": [
          [
            [
              132.5776,
              33.534312
            ],
            [
              132.577107,
              33.534133
            ],
            [
              132.576442,
              33.533704
            ],
            [
              132.57627,
              33.534401
            ],
            [
              132.579682,
              33.534956
            ],
            [
              132.579381,
              33.534777
            ],
            [
              132.5776,
              33.534312
            ]
          ]
        ]
      }
    },
    {
      "type": "Feature",
      "properties": {
        "name": "推定浸水範囲",
        "注意": "この情報は、国土交通省災害対策用ヘリコプタ<br/>ーが7月8日に撮影した画像を用いて浸水範囲を<br/>判読したものです。画像の撮影範囲内の判<br/>読であること、現地踏査は実施していないこと<br/>から、実際の浸水範囲との相違がある場合が有<br/>ります。",
        "_color": "#00fa9a",
        "_opacity": 1,
        "_weight": 1.5,
        "_fillColor": "#00fa9a",
        "_fillOpacity": 0.2
      },
      "geometry": {
        "type": "Polygon",
        "coordinates": [
          [
            [
              132.583491,
              33.533874
            ],
            [
              132.583587,
              33.533418
            ],
            [
              132.581838,
              33.533203
            ],
            [
              132.581452,
              33.533623
            ],
            [
              132.583491,
              33.533874
            ]
          ]
        ]
      }
    },
    {
      "type": "Feature",
      "properties": {
        "name": "推定浸水範囲",
        "注意": "この情報は、国土交通省災害対策用ヘリコプタ<br/>ーが7月8日に撮影した画像を用いて浸水範囲を<br/>判読したものです。画像の撮影範囲内の判<br/>読であること、現地踏査は実施していないこと<br/>から、実際の浸水範囲との相違がある場合が有<br/>ります。",
        "_color": "#00fa9a",
        "_opacity": 1,
        "_weight": 1.5,
        "_fillColor": "#00fa9a",
        "_fillOpacity": 0.2
      },
      "geometry": {
        "type": "Polygon",
        "coordinates": [
          [
            [
              132.581785,
              33.533811
            ],
            [
              132.58172,
              33.53424
            ],
            [
              132.582364,
              33.53433
            ],
            [
              132.582343,
              33.534545
            ],
            [
              132.58363,
              33.53458
            ],
            [
              132.585937,
              33.534706
            ],
            [
              132.58599,
              33.534321
            ],
            [
              132.585196,
              33.534205
            ],
            [
              132.585132,
              33.534562
            ],
            [
              132.584896,
              33.53458
            ],
            [
              132.58496,
              33.534133
            ],
            [
              132.583051,
              33.533936
            ],
            [
              132.582965,
              33.534437
            ],
            [
              132.582707,
              33.534419
            ],
            [
              132.582772,
              33.533901
            ],
            [
              132.581785,
              33.533811
            ]
          ]
        ]
      }
    },
    {
      "type": "Feature",
      "properties": {
        "name": "推定浸水範囲",
        "注意": "この情報は、国土交通省災害対策用ヘリコプタ<br/>ーが7月8日に撮影した画像を用いて浸水範囲を<br/>判読したものです。画像の撮影範囲内の判<br/>読であること、現地踏査は実施していないこと<br/>から、実際の浸水範囲との相違がある場合が有<br/>ります。",
        "_color": "#00fa9a",
        "_opacity": 1,
        "_weight": 1.5,
        "_fillColor": "#00fa9a",
        "_fillOpacity": 0.2
      },
      "geometry": {
        "type": "Polygon",
        "coordinates": [
          [
            [
              132.572917,
              33.53415
            ],
            [
              132.573179,
              33.534027
            ],
            [
              132.57362,
              33.534058
            ],
            [
              132.573744,
              33.533981
            ],
            [
              132.574227,
              33.533237
            ],
            [
              132.574209,
              33.532985
            ],
            [
              132.573928,
              33.532931
            ],
            [
              132.572498,
              33.533207
            ],
            [
              132.572264,
              33.533287
            ],
            [
              132.571445,
              33.533625
            ],
            [
              132.570907,
              33.534246
            ],
            [
              132.570521,
              33.534863
            ],
            [
              132.570026,
              33.535523
            ],
            [
              132.570642,
              33.53573
            ],
            [
              132.570932,
              33.535837
            ],
            [
              132.570591,
              33.536393
            ],
            [
              132.570821,
              33.5365
            ],
            [
              132.571998,
              33.535159
            ],
            [
              132.57255,
              33.534488
            ],
            [
              132.572917,
              33.53415
            ]
          ]
        ]
      }
    },
    {
      "type": "Feature",
      "properties": {
        "name": "推定浸水範囲",
        "注意": "この情報は、国土交通省災害対策用ヘリコプタ<br/>ーが7月8日に撮影した画像を用いて浸水範囲を<br/>判読したものです。画像の撮影範囲内の判<br/>読であること、現地踏査は実施していないこと<br/>から、実際の浸水範囲との相違がある場合が有<br/>ります。",
        "_color": "#00fa9a",
        "_opacity": 1,
        "_weight": 1.5,
        "_fillColor": "#00fa9a",
        "_fillOpacity": 0.2
      },
      "geometry": {
        "type": "Polygon",
        "coordinates": [
          [
            [
              132.563929,
              33.51919
            ],
            [
              132.56393,
              33.519181
            ],
            [
              132.563849,
              33.519163
            ],
            [
              132.563818,
              33.519166
            ],
            [
              132.559683,
              33.518249
            ],
            [
              132.559276,
              33.519143
            ],
            [
              132.55904,
              33.519662
            ],
            [
              132.560306,
              33.51993
            ],
            [
              132.560134,
              33.520556
            ],
            [
              132.560949,
              33.520861
            ],
            [
              132.560499,
              33.522399
            ],
            [
              132.560177,
              33.523222
            ],
            [
              132.562387,
              33.523741
            ],
            [
              132.562922,
              33.52221
            ],
            [
              132.563035,
              33.522235
            ],
            [
              132.563127,
              33.522265
            ],
            [
              132.563353,
              33.522314
            ],
            [
              132.563991,
              33.522484
            ],
            [
              132.564104,
              33.522153
            ],
            [
              132.565125,
              33.52239
            ],
            [
              132.565321,
              33.521898
            ],
            [
              132.56659,
              33.52225
            ],
            [
              132.568426,
              33.522698
            ],
            [
              132.568299,
              33.523428
            ],
            [
              132.569372,
              33.523673
            ],
            [
              132.568962,
              33.525233
            ],
            [
              132.568484,
              33.526759
            ],
            [
              132.569652,
              33.526943
            ],
            [
              132.570035,
              33.525492
            ],
            [
              132.573346,
              33.526156
            ],
            [
              132.573051,
              33.527313
            ],
            [
              132.574063,
              33.527505
            ],
            [
              132.573801,
              33.528122
            ],
            [
              132.575111,
              33.528398
            ],
            [
              132.575024,
              33.529203
            ],
            [
              132.575084,
              33.530426
            ],
            [
              132.575429,
              33.531713
            ],
            [
              132.575525,
              33.531729
            ],
            [
              132.575585,
              33.531694
            ],
            [
              132.575916,
              33.531361
            ],
            [
              132.576849,
              33.530698
            ],
            [
              132.577636,
              33.530111
            ],
            [
              132.578183,
              33.530153
            ],
            [
              132.57821,
              33.530058
            ],
            [
              132.578482,
              33.529927
            ],
            [
              132.57862,
              33.529571
            ],
            [
              132.57919,
              33.528505
            ],
            [
              132.578974,
              33.528432
            ],
            [
              132.579098,
              33.528325
            ],
            [
              132.579263,
              33.528367
            ],
            [
              132.57999,
              33.527068
            ],
            [
              132.58002,
              33.526097
            ],
            [
              132.580027,
              33.525338
            ],
            [
              132.580027,
              33.524974
            ],
            [
              132.579564,
              33.523641
            ],
            [
              132.579334,
              33.523143
            ],
            [
              132.578966,
              33.522717
            ],
            [
              132.578313,
              33.522365
            ],
            [
              132.577784,
              33.522234
            ],
            [
              132.577982,
              33.521517
            ],
            [
              132.577534,
              33.521368
            ],
            [
              132.577295,
              33.522115
            ],
            [
              132.575323,
              33.52169
            ],
            [
              132.575502,
              33.520908
            ],
            [
              132.574606,
              33.520459
            ],
            [
              132.574353,
              33.521406
            ],
            [
              132.574215,
              33.521349
            ],
            [
              132.574445,
              33.520425
            ],
            [
              132.574058,
              33.520325
            ],
            [
              132.573852,
              33.520847
            ],
            [
              132.573576,
              33.520785
            ],
            [
              132.573428,
              33.521169
            ],
            [
              132.57307,
              33.521096
            ],
            [
              132.573456,
              33.520141
            ],
            [
              132.573065,
              33.520111
            ],
            [
              132.572757,
              33.519992
            ],
            [
              132.572504,
              33.521046
            ],
            [
              132.571562,
              33.520839
            ],
            [
              132.570884,
              33.520656
            ],
            [
              132.568944,
              33.520235
            ],
            [
              132.563929,
              33.51919
            ]
          ]
        ]
      }
    },
    {
      "type": "Feature",
      "properties": {
        "name": "推定浸水範囲",
        "注意": "この情報は、国土交通省災害対策用ヘリコプタ<br/>ーが7月8日に撮影した画像を用いて浸水範囲を<br/>判読したものです。画像の撮影範囲内の判<br/>読であること、現地踏査は実施していないこと<br/>から、実際の浸水範囲との相違がある場合が有<br/>ります。",
        "_color": "#00fa9a",
        "_opacity": 1,
        "_weight": 1.5,
        "_fillColor": "#00fa9a",
        "_fillOpacity": 0.2
      },
      "geometry": {
        "type": "Polygon",
        "coordinates": [
          [
            [
              132.594633,
              33.508449
            ],
            [
              132.591682,
              33.508293
            ],
            [
              132.591376,
              33.508297
            ],
            [
              132.591333,
              33.509187
            ],
            [
              132.59136,
              33.509268
            ],
            [
              132.591875,
              33.509348
            ],
            [
              132.592685,
              33.509567
            ],
            [
              132.593538,
              33.509791
            ],
            [
              132.593908,
              33.509827
            ],
            [
              132.594472,
              33.509711
            ],
            [
              132.59496,
              33.509612
            ],
            [
              132.59497,
              33.509433
            ],
            [
              132.595464,
              33.509469
            ],
            [
              132.595378,
              33.509362
            ],
            [
              132.595335,
              33.509259
            ],
            [
              132.595341,
              33.508861
            ],
            [
              132.594595,
              33.508803
            ],
            [
              132.594633,
              33.508449
            ]
          ]
        ]
      }
    },
    {
      "type": "Feature",
      "properties": {
        "name": "推定浸水範囲",
        "注意": "この情報は、国土交通省災害対策用ヘリコプタ<br/>ーが7月8日に撮影した画像を用いて浸水範囲を<br/>判読したものです。画像の撮影範囲内の判<br/>読であること、現地踏査は実施していないこと<br/>から、実際の浸水範囲との相違がある場合が有<br/>ります。",
        "_color": "#00fa9a",
        "_opacity": 1,
        "_weight": 1.5,
        "_fillColor": "#00fa9a",
        "_fillOpacity": 0.2
      },
      "geometry": {
        "type": "Polygon",
        "coordinates": [
          [
            [
              132.537292,
              33.511773
            ],
            [
              132.536831,
              33.512273
            ],
            [
              132.534771,
              33.511191
            ],
            [
              132.534235,
              33.510851
            ],
            [
              132.533698,
              33.510305
            ],
            [
              132.533548,
              33.51018
            ],
            [
              132.53388,
              33.509456
            ],
            [
              132.535243,
              33.51001
            ],
            [
              132.535801,
              33.510189
            ],
            [
              132.536702,
              33.510359
            ],
            [
              132.536616,
              33.511191
            ],
            [
              132.536423,
              33.511603
            ],
            [
              132.536981,
              33.511755
            ],
            [
              132.537292,
              33.511773
            ]
          ]
        ]
      }
    }
  ]
}